GLOBALSTAR M069         
1 31573U 07020C   26183.31051867 -.00000079  00000+0  12183-3 0  9993
2 31573  52.0000 209.3215 0001986 181.5741 264.0801 12.23471677880659
GLOBALSTAR M072         
1 31574U 07020D   26182.97046258 -.00000067  00000+0  23801-3 0  9999
2 31574  51.9939  60.8887 0001567   7.7457   5.2209 11.91658471876747
GLOBALSTAR M066         
1 32265U 07048C   26182.85028515 -.00000097  00000+0 -20180-4 0  9992
2 32265  51.9600  15.8193 0005663  74.3636 298.7841 12.30387687862030
GLOBALSTAR M079         
1 37188U 10054A   26182.93309958 -.00000082  00000+0  12047-3 0  9999
2 37188  52.0043  63.7816 0001003  54.4683 318.6005 12.62266345724416
GLOBALSTAR M074         
1 37189U 10054B   26182.97923146 -.00000088  00000+0  88318-4 0  9996
2 37189  52.0027  62.9039 0000788  72.7752  30.2078 12.62261827725021
GLOBALSTAR M076         
1 37190U 10054C   26182.98594442 -.00000085  00000+0  10367-3 0  9997
2 37190  52.0036  63.0881 0001007  69.0416 304.3608 12.62261969724740
GLOBALSTAR M077         
1 37191U 10054D   26183.20018662 -.00000091  00000+0 -24437-3 0  9990
2 37191  51.9934 141.1895 0002488 200.3537 262.9549 11.67547924722896
GLOBALSTAR M075         
1 37192U 10054E   26183.07819650 -.00000089  00000+0  80202-4 0  9991
2 37192  51.9946 104.8530 0000506  42.2092 330.8344 12.62267519723827
GLOBALSTAR M073         
1 37193U 10054F   26183.27174427 -.00000092  00000+0  63654-4 0  9996
2 37193  52.0076  18.3758 0001103  76.3772  95.0105 12.62266803725835
GLOBALSTAR M083         
1 37739U 11033A   26183.12619302 -.00000083  00000+0  11846-3 0  9995
2 37739  51.9877 327.0271 0000942  89.8901  81.1260 12.62263779694833
GLOBALSTAR M088         
1 37740U 11033B   26183.31742067 -.00000082  00000+0  12207-3 0  9994
2 37740  52.0195 232.9105 0000344 148.6451 290.2960 12.62269188690409
GLOBALSTAR M091         
1 37741U 11033C   26183.25139520 -.00000109  00000+0 -29230-4 0  9998
2 37741  51.9966 196.0533 0000080 344.2356  95.3156 12.62264197691186
GLOBALSTAR M085         
1 37742U 11033D   26183.22342736 -.00000115  00000+0 -63253-4 0  9991
2 37742  52.0105 147.4424 0000467  10.3231   2.1274 12.62264184691694
GLOBALSTAR M081         
1 37743U 11033E   26183.17077411 -.00000116  00000+0 -68169-4 0  9993
2 37743  51.9937 150.0219 0000363  38.1848 334.6350 12.62265301691831
GLOBALSTAR M089         
1 37744U 11033F   26182.98756927 -.00000099  00000+0  24558-4 0  9991
2 37744  51.9926 104.7360 0000556  79.5577   1.3374 12.62267399692659
GLOBALSTAR M084         
1 38040U 11080A   26183.17902997 -.00000097  00000+0  38158-4 0  9994
2 38040  52.0026 331.6420 0001064 110.6016  60.6638 12.62267694670655
GLOBALSTAR M080         
1 38041U 11080B   26183.15043183 -.00000099  00000+0  24868-4 0  9991
2 38041  52.0079 333.4525 0000436  80.4474  90.8806 12.62265390670770
GLOBALSTAR M082         
1 38042U 11080C   26183.00765285 -.00000081  00000+0  12549-3 0  9993
2 38042  52.0083 289.3904 0000398 110.2079  61.7663 12.62263822671469
GLOBALSTAR M092         
1 38043U 11080D   26182.97673444 -.00000081  00000+0  12701-3 0  9994
2 38043  52.0101  19.8817 0000846  84.1941  66.4095 12.62267363669917
GLOBALSTAR M090         
1 38044U 11080E   26182.71200113 -.00000108  00000+0 -25741-4 0  9996
2 38044  52.0133 284.2508 0000544 104.9665  41.8852 12.62252643671542
GLOBALSTAR M086         
1 38045U 11080F   26183.05563463 -.00000062  00000+0  23566-3 0  9995
2 38045  51.9902 283.1101 0001675  91.9936  79.4370 12.62287483671535
GLOBALSTAR M097         
1 39072U 13005A   26183.28708994 -.00000106  00000+0 -15170-4 0  9993
2 39072  52.0014 197.3711 0000154  49.6290 310.4591 12.62271325618812
GLOBALSTAR M093         
1 39073U 13005B   26183.18108320 -.00000110  00000+0 -34528-4 0  9993
2 39073  52.0074 191.0454 0000327  33.1747 326.9140 12.62266207618759
GLOBALSTAR M094         
1 39074U 13005C   26183.10175777 -.00000102  00000+0  11857-4 0  9996
2 39074  51.9957 105.3886 0000761  36.7561 323.3358 12.62268444620356
GLOBALSTAR M096         
1 39075U 13005D   26183.19445960 -.00000118  00000+0 -77815-4 0  9994
2 39075  52.0048 153.9191 0000416  15.6779 344.4100 12.62265671619280
GLOBALSTAR M078         
1 39076U 13005E   26182.53406687 -.00000029  00000+0  41990-3 0  9999
2 39076  51.9859 239.9216 0000534 292.4665  67.6145 12.62260182617825
GLOBALSTAR M095         
1 39077U 13005F   26183.27343560 -.00000080  00000+0  13082-3 0  9990
2 39077  52.0063 235.2951 0000107   4.7466 355.3401 12.62263859617779
GLOBALSTAR M087         
1 52888U 22064A   26183.20742044 -.00000100  00000+0  19810-4 0  9992
2 52888  52.0011  16.7246 0000929  66.5498 293.5466 12.62269302193030
